{
  "type": "FeatureCollection",
  "features": [
    {
      "type": "Feature",
      "properties": {
        "norad_id": 63632,
        "name": "SHENZHOU-20 (SZ-20)",
        "group": "stations",
        "lat": -17.53088254735174,
        "lon": 20.03596411118369,
        "alt_km": 386.7784681297662,
        "timestamp": "2025-12-08T17:43:03.650585+00:00",
        "meta_object_name": "SHENZHOU-20 (SZ-20)",
        "meta_object_id": "2025-082A",
        "meta_epoch": "2025-12-08T07:04:12.884448",
        "meta_mean_motion": 15.58883062,
        "meta_eccentricity": 0.00091533,
        "meta_inclination": 41.4681,
        "meta_ra_of_asc_node": 43.6887,
        "meta_arg_of_pericenter": 354.9466,
        "meta_mean_anomaly": 5.1278,
        "meta_ephemeris_type": 0,
        "meta_classification_type": "U",
        "meta_norad_cat_id": 63632,
        "meta_element_set_no": 999,
        "meta_rev_at_epoch": 25530,
        "meta_bstar": 0.000309658,
        "meta_mean_motion_dot": 0.00024468,
        "meta_mean_motion_ddot": 0,
        "tle_line1": "1 63632U 25082A   25342.29459357  .00024468  00000+0  30966-3 0  9997",
        "tle_line2": "2 63632  41.4681  43.6887 0009153 354.9466   5.1278 15.58883062255301"
      },
      "geometry": {
        "type": "Point",
        "coordinates": [
          20.03596411118369,
          -17.53088254735174
        ]
      }
    },
    {
      "type": "Feature",
      "properties": {
        "norad_id": 64751,
        "name": "PROGRESS-MS 31",
        "group": "stations",
        "lat": 10.25708864893846,
        "lon": 170.533825364829,
        "alt_km": 419.7703416456161,
        "timestamp": "2025-12-08T17:43:03.650596+00:00",
        "meta_object_name": "PROGRESS-MS 31",
        "meta_object_id": "2025-146A",
        "meta_epoch": "2025-12-08T05:16:39.559584",
        "meta_mean_motion": 15.49412336,
        "meta_eccentricity": 0.00034318,
        "meta_inclination": 51.6305,
        "meta_ra_of_asc_node": 164.8582,
        "meta_arg_of_pericenter": 219.3069,
        "meta_mean_anomaly": 140.7671,
        "meta_ephemeris_type": 0,
        "meta_classification_type": "U",
        "meta_norad_cat_id": 64751,
        "meta_element_set_no": 999,
        "meta_rev_at_epoch": 675,
        "meta_bstar": 0.00022082399,
        "meta_mean_motion_dot": 0.00011911,
        "meta_mean_motion_ddot": 0,
        "tle_line1": "1 64751U 25146A   25342.21990231  .00011911  00000+0  22082-3 0  9993",
        "tle_line2": "2 64751  51.6305 164.8582 0003431 219.3069 140.7671 15.49412336  6752"
      },
      "geometry": {
        "type": "Point",
        "coordinates": [
          170.533825364829,
          10.25708864893846
        ]
      }
    },
    {
      "type": "Feature",
      "properties": {
        "norad_id": 64786,
        "name": "TIANZHOU-9",
        "group": "stations",
        "lat": -17.53088170220078,
        "lon": 20.03596523681596,
        "alt_km": 386.7784679894303,
        "timestamp": "2025-12-08T17:43:03.650606+00:00",
        "meta_object_name": "TIANZHOU-9",
        "meta_object_id": "2025-149A",
        "meta_epoch": "2025-12-08T07:04:12.884448",
        "meta_mean_motion": 15.58883062,
        "meta_eccentricity": 0.00091533,
        "meta_inclination": 41.4681,
        "meta_ra_of_asc_node": 43.6887,
        "meta_arg_of_pericenter": 354.9466,
        "meta_mean_anomaly": 5.1278,
        "meta_ephemeris_type": 0,
        "meta_classification_type": "U",
        "meta_norad_cat_id": 64786,
        "meta_element_set_no": 999,
        "meta_rev_at_epoch": 25530,
        "meta_bstar": 0.000309658,
        "meta_mean_motion_dot": 0.00024468,
        "meta_mean_motion_ddot": 0,
        "tle_line1": "1 64786U 25149A   25342.29459357  .00024468  00000+0  30966-3 0  9992",
        "tle_line2": "2 64786  41.4681  43.6887 0009153 354.9466   5.1278 15.58883062255302"
      },
      "geometry": {
        "type": "Point",
        "coordinates": [
          20.03596523681596,
          -17.53088170220078
        ]
      }
    },
    {
      "type": "Feature",
      "properties": {
        "norad_id": 65077,
        "name": "CREW DRAGON 11",
        "group": "stations",
        "lat": 10.257089801433631,
        "lon": 170.5338263163652,
        "alt_km": 419.77034150317377,
        "timestamp": "2025-12-08T17:43:03.650619+00:00",
        "meta_object_name": "CREW DRAGON 11",
        "meta_object_id": "2025-166A",
        "meta_epoch": "2025-12-08T05:16:39.559584",
        "meta_mean_motion": 15.49412336,
        "meta_eccentricity": 0.00034318,
        "meta_inclination": 51.6305,
        "meta_ra_of_asc_node": 164.8582,
        "meta_arg_of_pericenter": 219.3069,
        "meta_mean_anomaly": 140.7671,
        "meta_ephemeris_type": 0,
        "meta_classification_type": "U",
        "meta_norad_cat_id": 65077,
        "meta_element_set_no": 999,
        "meta_rev_at_epoch": 214,
        "meta_bstar": 0.00022082399,
        "meta_mean_motion_dot": 0.00011911,
        "meta_mean_motion_ddot": 0,
        "tle_line1": "1 65077U 25166A   25342.21990231  .00011911  00000+0  22082-3 0  9997",
        "tle_line2": "2 65077  51.6305 164.8582 0003431 219.3069 140.7671 15.49412336  2143"
      },
      "geometry": {
        "type": "Point",
        "coordinates": [
          170.5338263163652,
          10.257089801433631
        ]
      }
    },
    {
      "type": "Feature",
      "properties": {
        "norad_id": 65304,
        "name": "DRAGON CRS-33",
        "group": "stations",
        "lat": 10.257090352626719,
        "lon": 170.53382677144754,
        "alt_km": 419.77034143504807,
        "timestamp": "2025-12-08T17:43:03.650630+00:00",
        "meta_object_name": "DRAGON CRS-33",
        "meta_object_id": "2025-186A",
        "meta_epoch": "2025-12-08T05:16:39.559584",
        "meta_mean_motion": 15.49412336,
        "meta_eccentricity": 0.00034318,
        "meta_inclination": 51.6305,
        "meta_ra_of_asc_node": 164.8582,
        "meta_arg_of_pericenter": 219.3069,
        "meta_mean_anomaly": 140.7671,
        "meta_ephemeris_type": 0,
        "meta_classification_type": "U",
        "meta_norad_cat_id": 65304,
        "meta_element_set_no": 999,
        "meta_rev_at_epoch": 11,
        "meta_bstar": 0.00022082399,
        "meta_mean_motion_dot": 0.00011911,
        "meta_mean_motion_ddot": 0,
        "tle_line1": "1 65304U 25186A   25342.21990231  .00011911  00000+0  22082-3 0  9992",
        "tle_line2": "2 65304  51.6305 164.8582 0003431 219.3069 140.7671 15.49412336   111"
      },
      "geometry": {
        "type": "Point",
        "coordinates": [
          170.53382677144754,
          10.257090352626719
        ]
      }
    },
    {
      "type": "Feature",
      "properties": {
        "norad_id": 65586,
        "name": "PROGRESS-MS 32",
        "group": "stations",
        "lat": 10.25709095392786,
        "lon": 170.53382726790065,
        "alt_km": 419.7703413607287,
        "timestamp": "2025-12-08T17:43:03.650642+00:00",
        "meta_object_name": "PROGRESS-MS 32",
        "meta_object_id": "2025-204A",
        "meta_epoch": "2025-12-08T05:16:39.559584",
        "meta_mean_motion": 15.49412336,
        "meta_eccentricity": 0.00034318,
        "meta_inclination": 51.6305,
        "meta_ra_of_asc_node": 164.8582,
        "meta_arg_of_pericenter": 219.3069,
        "meta_mean_anomaly": 140.7671,
        "meta_ephemeris_type": 0,
        "meta_classification_type": "U",
        "meta_norad_cat_id": 65586,
        "meta_element_set_no": 999,
        "meta_rev_at_epoch": 27,
        "meta_bstar": 0.00022082399,
        "meta_mean_motion_dot": 0.00011911,
        "meta_mean_motion_ddot": 0,
        "tle_line1": "1 65586U 25204A   25342.21990231  .00011911  00000+0  22082-3 0  9995",
        "tle_line2": "2 65586  51.6305 164.8582 0003431 219.3069 140.7671 15.49412336   270"
      },
      "geometry": {
        "type": "Point",
        "coordinates": [
          170.53382726790065,
          10.25709095392786
        ]
      }
    },
    {
      "type": "Feature",
      "properties": {
        "norad_id": 65616,
        "name": "CYGNUS NG-23",
        "group": "stations",
        "lat": 10.257091505120291,
        "lon": 170.5338277229825,
        "alt_km": 419.7703412926048,
        "timestamp": "2025-12-08T17:43:03.650653+00:00",
        "meta_object_name": "CYGNUS NG-23",
        "meta_object_id": "2025-208A",
        "meta_epoch": "2025-12-08T05:16:39.559584",
        "meta_mean_motion": 15.49412336,
        "meta_eccentricity": 0.00034318,
        "meta_inclination": 51.6305,
        "meta_ra_of_asc_node": 164.8582,
        "meta_arg_of_pericenter": 219.3069,
        "meta_mean_anomaly": 140.7671,
        "meta_ephemeris_type": 0,
        "meta_classification_type": "U",
        "meta_norad_cat_id": 65616,
        "meta_element_set_no": 999,
        "meta_rev_at_epoch": 22,
        "meta_bstar": 0.00022082399,
        "meta_mean_motion_dot": 0.00011911,
        "meta_mean_motion_ddot": 0,
        "tle_line1": "1 65616U 25208A   25342.21990231  .00011911  00000+0  22082-3 0  9993",
        "tle_line2": "2 65616  51.6305 164.8582 0003431 219.3069 140.7671 15.49412336   229"
      },
      "geometry": {
        "type": "Point",
        "coordinates": [
          170.5338277229825,
          10.257091505120291
        ]
      }
    }
  ]
}